IRIDIUM 150             
1 43257U 18030J   24180.67193836  .00000016  00000+0 -15281-5 0  9990
2 43257  86.3976 230.7184 0002510  94.3533 265.7950 14.34217578327178
IRIDIUM 161             
1 43478U 18047C   24180.62417909  .00000229  00000+0  62194-4 0  9997
2 43478  86.4490  28.7629 0002315  86.2720 273.8745 14.43283465321494
IRIDIUM 152             
1 43479U 18047D   24180.69539574  .00000020  00000+0  20931-6 0  9992
2 43479  86.3964  28.5925 0002202  89.5650 270.5798 14.34217874319502
IRIDIUM 147             
1 43480U 18047E   24180.63196740  .00000135  00000+0  41075-4 0  9999
2 43480  86.3966  28.6116 0002059  88.9682 271.1749 14.34215579319498
IRIDIUM 110             
1 43481U 18047F   24180.63831136  .00000031  00000+0  40675-5 0  9996
2 43481  86.3967  28.6820 0001781  93.1064 267.0335 14.34217965319480
IRIDIUM 162             
1 43482U 18047G   24180.68721768  .00000658  00000+0  18947-3 0  9991
2 43482  86.4488  28.6362 0002247  89.6931 270.4527 14.43285462321494
IRIDIUM 160             
1 43569U 18061A   24180.93299023  .00000052  00000+0  11395-4 0  9994
2 43569  86.3977 356.9403 0001792  82.3402 277.7997 14.34217932310421
